{
  "norad_id": 54670,
  "name": "ONEWEB-0606",
  "history": [
    {
      "epoch": "2026-03-28T22:06:15.662304Z",
      "apogee_km": 1179.0674715919204,
      "perigee_km": 1176.457663881224,
      "latitude_deg": 2.289976464866003e-05,
      "longitude_deg": 102.09671187043314,
      "height_km": 1180.6743283272149,
      "semi_major_axis_km": 7555.899567736572,
      "eccentricity": 0.0001727,
      "inclination_deg": 87.9172,
      "raan_deg": 259.9965,
      "arg_perigee_deg": 90.437,
      "mean_anomaly_deg": 269.6962,
      "mean_motion_rev_day": 13.21823586
    }
  ]
}